FLOCK 4G-24             
1 62637U 25009AE  26068.72509072  .00010513  00000+0  38996-3 0  9991
2 62637  97.4061 151.5140 0001802 280.2808  79.8228 15.27784978 63732
STARLINK-32687          
1 63565U 25075T   26068.54251514  .00022577  00000+0  82711-3 0  9997
2 63565  42.9983 271.5462 0002249 304.0179  56.0458 15.27591814 51917
